		  M50 Cartesian                         M50 Keplerian  
-----------------------------------       --------------------------------
 X    =       -4201207.09                 A    =         6783868.92  meter
 Y    =       -3928946.31  meter          E    =           .0008714
 Z    =        3588696.86                 I    =           51.99945
 XDOT =       1758.470260                 Wp   =           91.44296
 YDOT =      -5975.941199  meter/sec      RA   =           72.25498  deg
 ZDOT =      -4474.795560                 TA   =           46.35666
										  MA   =           46.28443
										  Ha   =            219.873  n.mi
										  Hp   =            215.879

		  M50 Cartesian                         J2K Cartesian  
-----------------------------------       --------------------------------
 X    =      -13783487.81                 X    =        -4174392.63
 Y    =      -12890243.81  feet           Y    =        -3975776.98  meter
 Z    =       11773939.84                 Z    =         3568353.81
 XDOT =       5769.259384                 XDOT =        1846.900583
 YDOT =     -19606.106295  feet/sec       YDOT =       -5955.782510  meter/sec
 ZDOT =     -14681.087796                 ZDOT =       -4466.038412

		  TDR Cartesian                         TDR Cartesian  
-----------------------------------       --------------------------------
 X    =      -13074865.27                 X    =        -3985218.93
 Y    =       13684308.46  feet           Y    =         4170977.22  meter
 Z    =       11685725.54                 Z    =         3561809.14
 XDOT =     -18528.708525                 XDOT =       -5647.550358
 YDOT =      -5174.435656  feet/sec       YDOT =       -1577.167988  meter/sec
 ZDOT =     -14641.715151                 ZDOT =       -4462.794778


The mean element set is posted at the UTC for which position is
just north of the next ascending node relative to the above
vector time


TWO LINE MEAN ELEMENT SET

ISS
1 25544U 98067A   16238.36211485  .00016717  00000-0  10270-3 0  9142
2 25544  51.6431  72.8508 0003456 256.5397 103.5370 15.54155542 15740


Satellite: ISS
Catalog Number: 25544
Epoch time:      16238.36211485   =   yrday.fracday
Element set:     914
Inclination:       51.6431  deg
RA of node:        72.8508  deg
Eccentricity:     .0003456     
Arg of perigee:   256.5397  deg
Mean anomaly:     103.5370  deg
Mean motion:   15.54155542  rev/day
Decay rate:    1.67170E-04  rev/day^2
Epoch rev:            1574
Checksum:              306


Coasting Arc #16 (Orbit 1588)
---------------------------------------

Vector Time (GMT): 2016/239/07:44:17.840
Vector Time (MET): N/A
Weight (LBS)     : 929483.8

		  M50 Cartesian                         M50 Keplerian  
-----------------------------------       --------------------------------
 X    =        3942213.75                 A    =         6787248.83  meter
 Y    =        5090050.57  meter          E    =           .0004325
 Z    =       -2140876.48                 I    =           52.00171
 XDOT =      -2806.121868                 Wp   =            8.56493
 YDOT =       4499.543669  meter/sec      RA   =           67.29974  deg
 ZDOT =       5536.305412                 TA   =          327.83070
										  MA   =          327.85708
										  Ha   =            219.633  n.mi
										  Hp   =            215.918

		  M50 Cartesian                         J2K Cartesian  
-----------------------------------       --------------------------------
 X    =       12933772.15                 X    =         3895401.90
 Y    =       16699640.97  feet           Y    =         5133873.25  meter
 Z    =       -7023872.98                 Z    =        -2121840.16
 XDOT =      -9206.436574                 XDOT =       -2883.121129
 YDOT =      14762.282380  feet/sec       YDOT =        4467.733339  meter/sec
 ZDOT =      18163.731668                 ZDOT =        5522.486953

		  TDR Cartesian                         TDR Cartesian  
-----------------------------------       --------------------------------
 X    =       16650614.65                 X    =         5075107.35
 Y    =      -13040958.95  feet           Y    =        -3974884.29  meter
 Z    =       -6941590.84                 Z    =        -2115796.89
 XDOT =      13847.533091                 XDOT =        4220.728086
 YDOT =       8054.524416  feet/sec       YDOT =        2455.019042  meter/sec
 ZDOT =      18102.492528                 ZDOT =        5517.639723


The mean element set is posted at the UTC for which position is
just north of the next ascending node relative to the above
vector time


TWO LINE MEAN ELEMENT SET

ISS
1 25544U 98067A   16239.32661888  .00016717  00000-0  10270-3 0  9156
2 25544  51.6444  68.0420 0003610 261.8515  98.2228 15.54190079 15899


Satellite: ISS
Catalog Number: 25544
Epoch time:      16239.32661888   =   yrday.fracday
Element set:     915
Inclination:       51.6444  deg
RA of node:        68.0420  deg
Eccentricity:     .0003610     
Arg of perigee:   261.8515  deg
Mean anomaly:      98.2228  deg
Mean motion:   15.54190079  rev/day
Decay rate:    1.67170E-04  rev/day^2
Epoch rev:            1589
Checksum:              319


Coasting Arc #17 (Orbit 1590)
---------------------------------------

Vector Time (GMT): 2016/239/10:03:00.000
Vector Time (MET): N/A
Weight (LBS)     : 910045.6

		  M50 Cartesian                         M50 Keplerian  
-----------------------------------       --------------------------------
 X    =       -4008935.32                 A    =         6787141.92  meter
 Y    =       -5010917.90  meter          E    =           .0010666
 Z    =        2192582.73                 I    =           51.99963
 XDOT =       2717.077009                 Wp   =          117.37162
 YDOT =      -4591.652686  meter/sec      RA   =           66.82142  deg
 ZDOT =      -5510.110731                 TA   =           38.40464
										  MA   =           38.32876
										  Ha   =            219.611  n.mi
										  Hp   =            215.925

		  M50 Cartesian                         J2K Cartesian  
-----------------------------------       --------------------------------
 X    =      -13152674.93                 X    =        -3963254.55
 Y    =      -16440019.35  feet           Y    =        -5055493.03  meter
 Z    =        7193512.89                 Z    =         2173219.55
 XDOT =       8914.294650                 XDOT =        2794.985625
 YDOT =     -15064.477315  feet/sec       YDOT =       -4560.833028  meter/sec
 ZDOT =     -18077.791112                 ZDOT =       -5496.722622

		  TDR Cartesian                         TDR Cartesian  
-----------------------------------       --------------------------------
 X    =       -5901498.96                 X    =        -1798776.88
 Y    =       20239489.81  feet           Y    =         6168996.49  meter
 Z    =        7109787.92                 Z    =         2167063.36
 XDOT =     -16045.861715                 XDOT =       -4890.778651
 YDOT =       1669.169131  feet/sec       YDOT =         508.762751  meter/sec
 ZDOT =     -18018.415449                 ZDOT =       -5492.013029


The mean element set is posted at the UTC for which position is
just north of the next ascending node relative to the above
vector time


TWO LINE MEAN ELEMENT SET

ISS
1 25544U 98067A   16239.45521784  .00016717  00000-0  10270-3 0  9161
2 25544  51.6438  67.4008 0003662 265.1739  94.8995 15.54196414 15914


Satellite: ISS
Catalog Number: 25544
Epoch time:      16239.45521784   =   yrday.fracday
Element set:     916
Inclination:       51.6438  deg
RA of node:        67.4008  deg
Eccentricity:     .0003662     
Arg of perigee:   265.1739  deg
Mean anomaly:      94.8995  deg
Mean motion:   15.54196414  rev/day
Decay rate:    1.67170E-04  rev/day^2
Epoch rev:            1591
Checksum:              339


Coasting Arc #18 (Orbit 1605)
---------------------------------------

Vector Time (GMT): 2016/240/10:03:00.000
Vector Time (MET): N/A
Weight (LBS)     : 910045.6

		  M50 Cartesian                         M50 Keplerian  
-----------------------------------       --------------------------------
 X    =        3543336.90                 A    =         6789083.68  meter
 Y    =        5761161.63  meter          E    =           .0008941
 Z    =        -523124.22                 I    =           51.99080
 XDOT =      -3792.344187                 Wp   =           23.80301
 YDOT =       2874.488608  meter/sec      RA   =           61.87240  deg
 ZDOT =       6013.233233                 TA   =          330.58040
										  MA   =          330.63069
										  Ha   =            219.600  n.mi
										  Hp   =            215.943

		  M50 Cartesian                         J2K Cartesian  
-----------------------------------       --------------------------------
 X    =       11625121.05                 X    =         3481191.86
 Y    =       18901448.92  feet           Y    =         5800438.11  meter
 Z    =       -1716286.82                 Z    =         -506062.86
 XDOT =     -12442.074105                 XDOT =       -3853.414946
 YDOT =       9430.736904  feet/sec       YDOT =        2831.738760  meter/sec
 ZDOT =      19728.455490                 ZDOT =        5994.662790

		  TDR Cartesian                         TDR Cartesian  
-----------------------------------       --------------------------------
 X    =        8462985.57                 X    =         2579518.00
 Y    =      -20519089.44  feet           Y    =        -6254218.46  meter
 Z    =       -1642770.46                 Z    =         -500716.43
 XDOT =      13520.409286                 XDOT =        4121.020750
 YDOT =       4015.464074  feet/sec       YDOT =        1223.913450  meter/sec
 ZDOT =      19646.735171                 ZDOT =        5988.324880


The mean element set is posted at the UTC for which position is
just north of the next ascending node relative to the above
vector time


TWO LINE MEAN ELEMENT SET

